[{"OBJECT_NAME":"STARLINK-3994","OBJECT_ID":"2022-052AM","EPOCH":"2026-03-09T19:54:45.215136","MEAN_MOTION":15.0884377,"ECCENTRICITY":0.00011833,"INCLINATION":53.2152,"RA_OF_ASC_NODE":268.4972,"ARG_OF_PERICENTER":85.3433,"MEAN_ANOMALY":274.7694,"EPHEMERIS_TYPE":0,"CLASSIFICATION_TYPE":"U","NORAD_CAT_ID":52633,"ELEMENT_SET_NO":999,"REV_AT_EPOCH":21102,"BSTAR":6.0296058e-5,"MEAN_MOTION_DOT":6.72e-6,"MEAN_MOTION_DDOT":0},{"OBJECT_NAME":"ATLAS CENTAUR 2","OBJECT_ID":"1963-047A","EPOCH":"2026-03-09T09:44:46.728096","MEAN_MOTION":14.12066161,"ECCENTRICITY":0.05477336,"INCLINATION":30.3512,"RA_OF_ASC_NODE":197.227,"ARG_OF_PERICENTER":77.7875,"MEAN_ANOMALY":288.3499,"EPHEMERIS_TYPE":0,"CLASSIFICATION_TYPE":"U","NORAD_CAT_ID":694,"ELEMENT_SET_NO":999,"REV_AT_EPOCH":13158,"BSTAR":0.00021795899,"MEAN_MOTION_DOT":1.862e-5,"MEAN_MOTION_DDOT":0}]
